[
  { "city": "Athens", "zip": "45701" },
  { "city": "Avon", "zip": "44011" },
  { "city": "Avon Lake", "zip": "44012" },
  { "city": "Bellevue", "zip": "44811" },
  { "city": "Blanchester", "zip": "45107" },
  { "city": "Bluffton", "zip": "45817" },
  { "city": "Brecksville", "zip": "44141" },
  { "city": "Brookpark", "zip": "44142" },
  { "city": "Brookville", "zip": "45309" },
  { "city": "Bucyrus", "zip": "44820" },
  { "city": "Canton", "zip": "44705" },
  { "city": "Chagrin Falls", "zip": "44022" },
  { "city": "Chesterland", "zip": "44026" },
  { "city": "Cincinnati", "zip": "45202" },
  { "city": "Cleveland", "zip": "45101" },
  { "city": "Cleveland Heights", "zip": "44118" },
  { "city": "Columbus", "zip": "43215" },
  { "city": "Copley", "zip": "44321" },
  { "city": "Dayton", "zip": "45401" },
  { "city": "Dennison", "zip": "44621" },
  { "city": "Dover", "zip": "44622" },
  { "city": "Doylestown", "zip": "44230" },
  { "city": "Dublin", "zip": "43017" },
  { "city": "Eaton", "zip": "45320" },
  { "city": "Fairborn", "zip": "45324" },
  { "city": "Fairlawn", "zip": "44333" },
  { "city": "Findlay", "zip": "45840" },
  { "city": "Franklin", "zip": "45005" },
  { "city": "Fremont", "zip": "43420" },
  { "city": "Gahanna", "zip": "" },
  { "city": "Geneva", "zip": "" },
  { "city": "Hamilton", "zip": "" },
  { "city": "Heath", "zip": "" },
  { "city": "Hilliard", "zip": "" },
  { "city": "Independence", "zip": "" },
  { "city": "Johnstown", "zip": "" },
  { "city": "Kettering", "zip": "" },
  { "city": "Lakewood", "zip": "" },
  { "city": "Lebanon", "zip": "" },
  { "city": "Lima", "zip": "" },
  { "city": "Lorain", "zip": "" },
  { "city": "Loveland", "zip": "" },
  { "city": "Lyndhurst", "zip": "" },
  { "city": "Mansfield", "zip": "" },
  { "city": "Mayfield Heights", "zip": "" },
  { "city": "Mayfield Vlg", "zip": "" },
  { "city": "Medina", "zip": "" },
  { "city": "Middleburg Heights", "zip": "" },
  { "city": "Middlefield", "zip": "" },
  { "city": "Milford", "zip": "" },
  { "city": "Montgomery", "zip": "" },
  { "city": "Moraine", "zip": "" },
  { "city": "Mount Healthy", "zip": "" },
  { "city": "New Lebanon", "zip": "" },
  { "city": "New Lexington", "zip": "" },
  { "city": "Newark", "zip": "" },
  { "city": "Niles", "zip": "" },
  { "city": "North Olmsted", "zip": "" },
  { "city": "North Royalton", "zip": "" },
  { "city": "Norwood", "zip": "" },
  { "city": "Oak Hill", "zip": "" },
  { "city": "Oberlin", "zip": "" },
  { "city": "Painesville", "zip": "" },
  { "city": "Piqua", "zip": "45356" },
  { "city": "Ravenna", "zip": "" },
  { "city": "Reynoldsburg", "zip": "" },
  { "city": "Richmond Heights", "zip": "" },
  { "city": "Rocky River", "zip": "" },
  { "city": "Shaker Heights", "zip": "" },
  { "city": "Sidney", "zip": "45365" },
  { "city": "South Euclid", "zip": "" },
  { "city": "Springfield", "zip": "" },
  { "city": "Tipp City", "zip": "" },
  { "city": "Toledo", "zip": "" },
  { "city": "University Heights", "zip": "" },
  { "city": "Upper Arlington", "zip": "" },
  { "city": "Warren", "zip": "" },
  { "city": "Waverly", "zip": "" },
  { "city": "Westerville", "zip": "" },
  { "city": "Westlake", "zip": "" },
  { "city": "Whitehall", "zip": "" },
  { "city": "Willoughby", "zip": "" },
  { "city": "Wilmington", "zip": "" },
  { "city": "Woodville", "zip": "" },
  { "city": "Wooster", "zip": "" },
  { "city": "Worthington", "zip": "" },
  { "city": "Youngstown", "zip": "" }
]
